[{"OBJECT_NAME":"BEIDOU-3 M26 (C48)","OBJECT_ID":"2023-207B","EPOCH":"2026-03-30T03:55:59.700288","MEAN_MOTION":1.86229633,"ECCENTRICITY":0.00055685,"INCLINATION":55.687,"RA_OF_ASC_NODE":64.9536,"ARG_OF_PERICENTER":296.6294,"MEAN_ANOMALY":63.3008,"EPHEMERIS_TYPE":0,"CLASSIFICATION_TYPE":"U","NORAD_CAT_ID":58655,"ELEMENT_SET_NO":999,"REV_AT_EPOCH":1535,"BSTAR":0,"MEAN_MOTION_DOT":-1.9e-7,"MEAN_MOTION_DDOT":0},{"OBJECT_NAME":"BEIDOU-3 M25 (C47)","OBJECT_ID":"2024-168B","EPOCH":"2026-04-04T02:03:48.623616","MEAN_MOTION":1.86230346,"ECCENTRICITY":0.00037254,"INCLINATION":54.5395,"RA_OF_ASC_NODE":304.817,"ARG_OF_PERICENTER":321.6272,"MEAN_ANOMALY":215.3942,"EPHEMERIS_TYPE":0,"CLASSIFICATION_TYPE":"U","NORAD_CAT_ID":61186,"ELEMENT_SET_NO":999,"REV_AT_EPOCH":1040,"BSTAR":0,"MEAN_MOTION_DOT":-6.4e-7,"MEAN_MOTION_DDOT":0},{"OBJECT_NAME":"BEIDOU-3 M27 (C49)","OBJECT_ID":"2024-168C","EPOCH":"2026-04-03T21:16:28.636320","MEAN_MOTION":1.86230456,"ECCENTRICITY":0.00028765,"INCLINATION":54.5346,"RA_OF_ASC_NODE":304.8072,"ARG_OF_PERICENTER":31.7599,"MEAN_ANOMALY":146.4859,"EPHEMERIS_TYPE":0,"CLASSIFICATION_TYPE":"U","NORAD_CAT_ID":61187,"ELEMENT_SET_NO":999,"REV_AT_EPOCH":787,"BSTAR":0,"MEAN_MOTION_DOT":-6.4e-7,"MEAN_MOTION_DDOT":0}]
